{
  "norad_id": 62819,
  "name": "STARLINK-32856",
  "history": [
    {
      "epoch": "2026-03-28T17:29:56.386176Z",
      "apogee_km": 475.79054831989197,
      "perigee_km": 474.5554447923123,
      "latitude_deg": 2.2685553905123957e-05,
      "longitude_deg": 132.51248040760206,
      "height_km": 475.9444436256972,
      "semi_major_axis_km": 6853.309996556102,
      "eccentricity": 9.011e-05,
      "inclination_deg": 53.1577,
      "raan_deg": 221.1428,
      "arg_perigee_deg": 78.1412,
      "mean_anomaly_deg": 281.969,
      "mean_motion_rev_day": 15.30214091
    },
    {
      "epoch": "2026-03-29T01:20:12.620832Z",
      "apogee_km": 475.84313510887296,
      "perigee_km": 474.5122213983559,
      "latitude_deg": -1.5640715350444546e-05,
      "longitude_deg": 13.105118600344793,
      "height_km": 475.8843420501324,
      "semi_major_axis_km": 6853.314678253614,
      "eccentricity": 9.71e-05,
      "inclination_deg": 53.1568,
      "raan_deg": 219.625,
      "arg_perigee_deg": 73.2721,
      "mean_anomaly_deg": 286.8386,
      "mean_motion_rev_day": 15.30212523
    },
    {
      "epoch": "2026-03-29T01:20:12.621696Z",
      "apogee_km": 475.842998042579,
      "perigee_km": 474.5123584646499,
      "latitude_deg": -1.3874151232909745e-05,
      "longitude_deg": 13.105116306804778,
      "height_km": 475.8843815007987,
      "semi_major_axis_km": 6853.314678253614,
      "eccentricity": 9.708e-05,
      "inclination_deg": 53.1568,
      "raan_deg": 219.625,
      "arg_perigee_deg": 73.2721,
      "mean_anomaly_deg": 286.8386,
      "mean_motion_rev_day": 15.30212523
    },
    {
      "epoch": "2026-03-30T14:57:29.882592Z",
      "apogee_km": 476.14442836443595,
      "perigee_km": 474.35377564370447,
      "latitude_deg": 2.9016862289862385e-05,
      "longitude_deg": 159.95737054860726,
      "height_km": 476.05873511364604,
      "semi_major_axis_km": 6853.3861020040695,
      "eccentricity": 0.00013064,
      "inclination_deg": 53.1579,
      "raan_deg": 212.3442,
      "arg_perigee_deg": 84.3486,
      "mean_anomaly_deg": 275.7664,
      "mean_motion_rev_day": 15.30188602
    },
    {
      "epoch": "2026-03-31T08:12:04.398048Z",
      "apogee_km": 475.9759921382556,
      "perigee_km": 474.2750123851938,
      "latitude_deg": -3.589330570880798e-06,
      "longitude_deg": -102.73150883216678,
      "height_km": 475.8546131617336,
      "semi_major_axis_km": 6853.262502261724,
      "eccentricity": 0.0001241,
      "inclination_deg": 53.1584,
      "raan_deg": 209.0073,
      "arg_perigee_deg": 78.5467,
      "mean_anomaly_deg": 281.5673,
      "mean_motion_rev_day": 15.30229998
    },
    {
      "epoch": "2026-04-01T13:59:05.942688Z",
      "apogee_km": 476.52763523581143,
      "perigee_km": 473.98502631009524,
      "latitude_deg": 4.413040137950194e-05,
      "longitude_deg": 163.52641670631917,
      "height_km": 476.49730490689467,
      "semi_major_axis_km": 6853.393330772953,
      "eccentricity": 0.0001855,
      "inclination_deg": 53.1595,
      "raan_deg": 203.2448,
      "arg_perigee_deg": 105.6851,
      "mean_anomaly_deg": 254.4355,
      "mean_motion_rev_day": 15.30186181
    },
    {
      "epoch": "2026-04-02T16:38:00.489408Z",
      "apogee_km": 475.90343404347914,
      "perigee_km": 474.3058063569779,
      "latitude_deg": -1.7180035208691985e-05,
      "longitude_deg": 117.54737962571872,
      "height_km": 476.0298282842351,
      "semi_major_axis_km": 6853.241620200229,
      "eccentricity": 0.00011656,
      "inclination_deg": 53.1584,
      "raan_deg": 198.0875,
      "arg_perigee_deg": 91.9474,
      "mean_anomaly_deg": 268.166,
      "mean_motion_rev_day": 15.30236992
    },
    {
      "epoch": "2026-04-03T13:00:40.966848Z",
      "apogee_km": 476.0230543445441,
      "perigee_km": 474.7000549835511,
      "latitude_deg": 5.671575342035185e-06,
      "longitude_deg": 167.09644978272053,
      "height_km": 476.31681319665927,
      "semi_major_axis_km": 6853.498554664047,
      "eccentricity": 9.652e-05,
      "inclination_deg": 53.1614,
      "raan_deg": 194.1421,
      "arg_perigee_deg": 94.9117,
      "mean_anomaly_deg": 265.1994,
      "mean_motion_rev_day": 15.30150941
    },
    {
      "epoch": "2026-04-04T15:39:35.966304Z",
      "apogee_km": 475.804276235157,
      "perigee_km": 474.30342743860547,
      "latitude_deg": 3.0276745817460876e-05,
      "longitude_deg": 121.11728349604284,
      "height_km": 476.1320629721569,
      "semi_major_axis_km": 6853.190851836881,
      "eccentricity": 0.0001095,
      "inclination_deg": 53.1607,
      "raan_deg": 188.9865,
      "arg_perigee_deg": 103.8602,
      "mean_anomaly_deg": 256.2521,
      "mean_motion_rev_day": 15.30253996
    },
    {
      "epoch": "2026-04-05T13:36:22.188672Z",
      "apogee_km": 475.71438812682663,
      "perigee_km": 474.80425709518386,
      "latitude_deg": -3.0707212570395445e-05,
      "longitude_deg": 146.7742462230979,
      "height_km": 476.20848329558976,
      "semi_major_axis_km": 6853.396322611005,
      "eccentricity": 6.64e-05,
      "inclination_deg": 53.1621,
      "raan_deg": 184.7374,
      "arg_perigee_deg": 96.3146,
      "mean_anomaly_deg": 263.793,
      "mean_motion_rev_day": 15.30185179
    },
    {
      "epoch": "2026-04-05T13:36:22.189536Z",
      "apogee_km": 475.71431959286383,
      "perigee_km": 474.80432562914757,
      "latitude_deg": -2.978989334607734e-05,
      "longitude_deg": 146.77424329662858,
      "height_km": 476.2084757577692,
      "semi_major_axis_km": 6853.396322611005,
      "eccentricity": 6.639e-05,
      "inclination_deg": 53.1621,
      "raan_deg": 184.7374,
      "arg_perigee_deg": 96.3146,
      "mean_anomaly_deg": 263.793,
      "mean_motion_rev_day": 15.30185179
    },
    {
      "epoch": "2026-04-06T05:16:53.882112Z",
      "apogee_km": 475.66543524171266,
      "perigee_km": 474.67636584550655,
      "latitude_deg": -1.3058936078519176e-05,
      "longitude_deg": -92.03496664511412,
      "height_km": 476.18584796158524,
      "semi_major_axis_km": 6853.307900543609,
      "eccentricity": 7.216e-05,
      "inclination_deg": 53.1616,
      "raan_deg": 181.704,
      "arg_perigee_deg": 103.5585,
      "mean_anomaly_deg": 256.5496,
      "mean_motion_rev_day": 15.30214793
    },
    {
      "epoch": "2026-04-07T12:37:56.638272Z",
      "apogee_km": 475.9363747886264,
      "perigee_km": 474.562133776918,
      "latitude_deg": 1.2142877051703153e-05,
      "longitude_deg": 150.35203445975606,
      "height_km": 476.3225178188578,
      "semi_major_axis_km": 6853.386254282772,
      "eccentricity": 0.00010026,
      "inclination_deg": 53.1588,
      "raan_deg": 175.64,
      "arg_perigee_deg": 104.7482,
      "mean_anomaly_deg": 255.363,
      "mean_motion_rev_day": 15.30188551
    },
    {
      "epoch": "2026-04-08T14:00:04.999680Z",
      "apogee_km": 476.06436399395534,
      "perigee_km": 474.49520568689877,
      "latitude_deg": 47.249999846564904,
      "longitude_deg": 177.57677962553248,
      "height_km": 479.7383352727411,
      "semi_major_axis_km": 6853.416784840427,
      "eccentricity": 0.00011448,
      "inclination_deg": 53.1576,
      "raan_deg": 170.7293,
      "arg_perigee_deg": 86.9001,
      "mean_anomaly_deg": 339.3699,
      "mean_motion_rev_day": 15.30178326
    }
  ]
}